ELYSIUM STAR 2 & LFF    
1 43760U 18099C   24186.45832240  .00039255  00000+0  14545-2 0  9990
2 43760  97.5166 254.1732 0007067 198.4640 161.6344 15.27506055305876
